API VERSION: 1.2
API SOURCE: NASA/JPL Horizons API

*******************************************************************************
 Revised: January 26, 2022             Saturn                               699
 
 PHYSICAL DATA:
  Mass x10^26 (kg)      = 5.6834          Density (g/cm^3)       =  0.687+-.001
  Equat. radius (1 bar) = 60268+-4 km     Polar radius (km)      = 54364+-10
  Vol. Mean Radius (km) = 58232+-6        Flattening             =  0.09796
  Geometric Albedo      = 0.47            Rocky core mass (Mc/M) =  0.1027
  Sid. rot. period (III)= 10h 39m 22.4s   Sid. rot. rate (rad/s) =  0.000163785 
  Mean solar day, hrs   =~10.656         
  GM (km^3/s^2)         = 37931206.234    GM 1-sigma (km^3/s^2)  = +- 98
  Equ. grav, ge (m/s^2) = 10.44           Pol. grav, gp (m/s^2)  = 12.14+-0.01
  Vis. magnitude V(1,0) = -8.88          
  Vis. mag. (opposition)= +0.67           Obliquity to orbit     = 26.73 deg
  Sidereal orbit period = 29.447498 yr    Sidereal orbit period  = 10755.698 d
  Mean daily motion     = 0.0334979 deg/d Mean orbit velocity    =  9.68 km/s
  Atmos. temp. (1 bar)  = 134+-4 K        Escape speed, km/s    =  35.5          
  Aroche(ice)/Rp        =  2.71           Hill's sphere rad. Rp  = 1100
                                 Perihelion  Aphelion    Mean
  Solar Constant (W/m^2)         16.8        13.6        15.1
  Maximum Planetary IR (W/m^2)    4.7         4.5         4.6
  Minimum Planetary IR (W/m^2)    4.7         4.5         4.6
*******************************************************************************


*******************************************************************************
Ephemeris / API_USER Thu Feb 19 13:06:23 2026 Pasadena, USA      / Horizons
*******************************************************************************
Target body name: Saturn (699)                    {source: sat441l}
Center body name: Sun (10)                        {source: DE441}
Center-site name: BODY CENTER
*******************************************************************************
Start time      : A.D. 2039-Jul-29 08:03:00.0000 TDB
Stop  time      : A.D. 2039-Aug-01 08:03:00.0000 TDB
Step-size       : 60 minutes
*******************************************************************************
Center geodetic : 0.0, 0.0, 0.0                   {E-lon(deg),Lat(deg),Alt(km)}
Center cylindric: 0.0, 0.0, 0.0                   {E-lon(deg),Dxy(km),Dz(km)}
Center radii    : 695700.0, 695700.0, 695700.0 km {Equator_a, b, pole_c}
Output units    : AU-D
Calendar mode   : Mixed Julian/Gregorian
Output type     : GEOMETRIC cartesian states
Output format   : 3 (position, velocity, LT, range, range-rate)
Reference frame : Ecliptic of J2000.0
*******************************************************************************
JDTDB
   X     Y     Z
   VX    VY    VZ
   LT    RG    RR
*******************************************************************************
$$SOE
2465998.835416667 = A.D. 2039-Jul-29 08:03:00.0000 TDB 
 X =-9.488374699784751E+00 Y = 8.399642918549305E-03 Z = 3.775782029409973E-01
 VX=-3.099140150321689E-04 VY=-5.598059177856019E-03 VZ= 1.097302303840331E-04
 LT= 5.484367563946597E-02 RG= 9.495888073100520E+00 RR= 3.090801325596754E-04
2465998.877083333 = A.D. 2039-Jul-29 09:03:00.0000 TDB 
 X =-9.488387609845013E+00 Y = 8.166390248869509E-03 Z = 3.775827750092244E-01
 VX=-3.097688556231464E-04 VY=-5.598068948753466E-03 VZ= 1.097290336767334E-04
 LT= 5.484375001764383E-02 RG= 9.495900951282806E+00 RR= 3.090725950098704E-04
2465998.918750000 = A.D. 2039-Jul-29 10:03:00.0000 TDB 
 X =-9.488400513854133E+00 Y = 7.933137174311260E-03 Z = 3.775873470262291E-01
 VX=-3.096235581572308E-04 VY=-5.598078612126399E-03 VZ= 1.097277715222989E-04
 LT= 5.484382439399121E-02 RG= 9.495913829148151E+00 RR= 3.090649171555634E-04
2465998.960416667 = A.D. 2039-Jul-29 11:03:00.0000 TDB 
 X =-9.488413411806141E+00 Y = 7.699883699371139E-03 Z = 3.775919189892478E-01
 VX=-3.094781132900708E-04 VY=-5.598088166499457E-03 VZ= 1.097264418762384E-04
 LT= 5.484389876847303E-02 RG= 9.495926706690486E+00 RR= 3.090570895692850E-04
2465999.002083333 = A.D. 2039-Jul-29 12:03:00.0000 TDB 
 X =-9.488426303694906E+00 Y = 7.466629828685680E-03 Z = 3.775964908954049E-01
 VX=-3.093325239266540E-04 VY=-5.598097606945253E-03 VZ= 1.097250416186822E-04
 LT= 5.484397314105333E-02 RG= 9.495939583903580E+00 RR= 3.090491150229344E-04
2465999.043750000 = A.D. 2039-Jul-29 13:03:00.0000 TDB 
 X =-9.488439189514114E+00 Y = 7.233375567103482E-03 Z = 3.776010627416698E-01
 VX=-3.091867741531929E-04 VY=-5.598106928479515E-03 VZ= 1.097235663529172E-04
 LT= 5.484404751169498E-02 RG= 9.495952460781014E+00 RR= 3.090409774331801E-04
2465999.085416667 = A.D. 2039-Jul-29 14:03:00.0000 TDB 
 X =-9.488452069257281E+00 Y = 7.000120919728714E-03 Z = 3.776056345248366E-01
 VX=-3.090408712438081E-04 VY=-5.598116123949240E-03 VZ= 1.097220120590838E-04
 LT= 5.484412188035994E-02 RG= 9.495965337316189E+00 RR= 3.090326839021880E-04
2465999.127083333 = A.D. 2039-Jul-29 15:03:00.0000 TDB 
 X =-9.488464942917812E+00 Y = 6.766865891953636E-03 Z = 3.776102062415101E-01
 VX=-3.088948075883923E-04 VY=-5.598125186542228E-03 VZ= 1.097203739601767E-04
 LT= 5.484419624700940E-02 RG= 9.495978213502392E+00 RR= 3.090242266284410E-04
2465999.168750000 = A.D. 2039-Jul-29 16:03:00.0000 TDB 
 X =-9.488477810489064E+00 Y = 6.533610489449213E-03 Z = 3.776147778881179E-01
 VX=-3.087485867440692E-04 VY=-5.598134110074402E-03 VZ= 1.097186484022736E-04
 LT= 5.484427061160422E-02 RG= 9.495991089332851E+00 RR= 3.090156090122028E-04
2465999.210416667 = A.D. 2039-Jul-29 17:03:00.0000 TDB 
 X =-9.488490671964621E+00 Y = 6.300354718105892E-03 Z = 3.776193494609624E-01
 VX=-3.086022154885916E-04 VY=-5.598142890259929E-03 VZ= 1.097168330295780E-04
 LT= 5.484434497410662E-02 RG= 9.496003964801011E+00 RR= 3.090068377214366E-04
2465999.252083333 = A.D. 2039-Jul-29 18:03:00.0000 TDB 
 X =-9.488503527338352E+00 Y = 6.067098583953402E-03 Z = 3.776239209562708E-01
 VX=-3.084556999824698E-04 VY=-5.598151524623068E-03 VZ= 1.097149265024557E-04
 LT= 5.484441933448038E-02 RG= 9.496016839900609E+00 RR= 3.089979188460965E-04
2465999.293750000 = A.D. 2039-Jul-29 19:03:00.0000 TDB 
 X =-9.488516376604339E+00 Y = 5.833842093098094E-03 Z = 3.776284923702277E-01
 VX=-3.083090444059188E-04 VY=-5.598160011822929E-03 VZ= 1.097129280621077E-04
 LT= 5.484449369269050E-02 RG= 9.496029714625587E+00 RR= 3.089888565195197E-04
2465999.335416667 = A.D. 2039-Jul-29 20:03:00.0000 TDB 
 X =-9.488529219756805E+00 Y = 5.600585251692537E-03 Z = 3.776330636989912E-01
 VX=-3.081622509368098E-04 VY=-5.598168350856843E-03 VZ= 1.097108371156210E-04
 LT= 5.484456804870280E-02 RG= 9.496042588970022E+00 RR= 3.089796528805208E-04
2465999.377083333 = A.D. 2039-Jul-29 21:03:00.0000 TDB 
 X =-9.488542056790015E+00 Y = 5.367328065936040E-03 Z = 3.776376349386924E-01
 VX=-3.080153203253026E-04 VY=-5.598176540388327E-03 VZ= 1.097086529234772E-04
 LT= 5.484464240248333E-02 RG= 9.496055462928044E+00 RR= 3.089703086355652E-04
2465999.418750000 = A.D. 2039-Jul-29 22:03:00.0000 TDB 
 X =-9.488554887698260E+00 Y = 5.134070542098884E-03 Z = 3.776422060854250E-01
 VX=-3.078682526153962E-04 VY=-5.598184578295672E-03 VZ= 1.097063744111473E-04
 LT= 5.484471675399830E-02 RG= 9.496068336493790E+00 RR= 3.089608237724436E-04
2465999.460416667 = A.D. 2039-Jul-29 23:03:00.0000 TDB 
 X =-9.488567712475827E+00 Y = 4.900812686560346E-03 Z = 3.776467771352295E-01
 VX=-3.077210477777725E-04 VY=-5.598192461443678E-03 VZ= 1.097040000905800E-04
 LT= 5.484479110321382E-02 RG= 9.496081209661403E+00 RR= 3.089511981894913E-04
2465999.502083333 = A.D. 2039-Jul-30 00:03:00.0000 TDB 
 X =-9.488580531117009E+00 Y = 4.667554505852601E-03 Z = 3.776513480840756E-01
 VX=-3.075737061655950E-04 VY=-5.598200185631133E-03 VZ= 1.097015280605269E-04
 LT= 5.484486545009609E-02 RG= 9.496094082425023E+00 RR= 3.089414321509136E-04
2465999.543750000 = A.D. 2039-Jul-30 01:03:00.0000 TDB 
 X =-9.488593343616122E+00 Y = 4.434296006704153E-03 Z = 3.776559189278461E-01
 VX=-3.074262287977472E-04 VY=-5.598207745649028E-03 VZ= 1.096989560513837E-04
 LT= 5.484493979461137E-02 RG= 9.496106954778810E+00 RR= 3.089315265713983E-04
2465999.585416667 = A.D. 2039-Jul-30 02:03:00.0000 TDB 
 X =-9.488606149967547E+00 Y = 4.201037196079799E-03 Z = 3.776604896623224E-01
 VX=-3.072786175237960E-04 VY=-5.598215135389172E-03 VZ= 1.096962814860955E-04
 LT= 5.484501413672625E-02 RG= 9.496119826716987E+00 RR= 3.089214831831748E-04
2465999.627083333 = A.D. 2039-Jul-30 03:03:00.0000 TDB 
 X =-9.488618950165762E+00 Y = 3.967778081215397E-03 Z = 3.776650602831731E-01
 VX=-3.071308751420503E-04 VY=-5.598222347961382E-03 VZ= 1.096935015396528E-04
 LT= 5.484508847640795E-02 RG= 9.496132698233867E+00 RR= 3.089113046561645E-04
2465999.668750000 = A.D. 2039-Jul-30 04:03:00.0000 TDB 
 X =-9.488631744205374E+00 Y = 3.734518669648466E-03 Z = 3.776696307859452E-01
 VX=-3.069830055357317E-04 VY=-5.598229375801923E-03 VZ= 1.096906131925044E-04
 LT= 5.484516281362429E-02 RG= 9.496145569323884E+00 RR= 3.089009947360107E-04
2465999.710416667 = A.D. 2039-Jul-30 05:03:00.0000 TDB 
 X =-9.488644532081194E+00 Y = 3.501258969243666E-03 Z = 3.776742011660564E-01
 VX=-3.068350138707203E-04 VY=-5.598236210780879E-03 VZ= 1.096876132850959E-04
 LT= 5.484523714834429E-02 RG= 9.496158439981672E+00 RR= 3.088905584436992E-04
2465999.752083333 = A.D. 2039-Jul-30 06:03:00.0000 TDB 
 X =-9.488657313788261E+00 Y = 3.267998988214155E-03 Z = 3.776787714187912E-01
 VX=-3.066869068687081E-04 VY=-5.598242844336162E-03 VZ= 1.096844985896312E-04
 LT= 5.484531148053824E-02 RG= 9.496171310202088E+00 RR= 3.088800023512208E-04
2465999.793750000 = A.D. 2039-Jul-30 07:03:00.0000 TDB 
 X =-9.488670089321950E+00 Y = 3.034738735135348E-03 Z = 3.776833415393002E-01
 VX=-3.065386931380329E-04 VY=-5.598249267674161E-03 VZ= 1.096812659196219E-04
 LT= 5.484538581017832E-02 RG= 9.496184179980320E+00 RR= 3.088693349163749E-04
